{
    "links": {
        "self": "http://www.neowsapp.com/rest/v1/neo/3774572?api_key=iIulBulltgU6a56xZRHN4H3l9WmuAYTsLGpBGhQ2"
    },
    "id": "3774572",
    "neo_reference_id": "3774572",
    "name": "(2017 JP2)",
    "designation": "2017 JP2",
    "nasa_jpl_url": "http://ssd.jpl.nasa.gov/sbdb.cgi?sstr=3774572",
    "absolute_magnitude_h": 23.6,
    "estimated_diameter": {
        "kilometers": {
            "estimated_diameter_min": 0.0506471459,
            "estimated_diameter_max": 0.1132504611
        },
        "meters": {
            "estimated_diameter_min": 50.6471458835,
            "estimated_diameter_max": 113.2504610618
        },
        "miles": {
            "estimated_diameter_min": 0.0314706677,
            "estimated_diameter_max": 0.0703705522
        },
        "feet": {
            "estimated_diameter_min": 166.1651821003,
            "estimated_diameter_max": 371.5566426699
        }
    },
    "is_potentially_hazardous_asteroid": false,
    "close_approach_data": [
        {
            "close_approach_date": "1903-12-08",
            "close_approach_date_full": "1903-Dec-08 12:11",
            "epoch_date_close_approach": -2084874540000,
            "relative_velocity": {
                "kilometers_per_second": "26.2031440716",
                "kilometers_per_hour": "94331.3186575984",
                "miles_per_hour": "58613.8129736616"
            },
            "miss_distance": {
                "astronomical": "0.4055826035",
                "lunar": "157.7716327615",
                "kilometers": "60674293.592654545",
                "miles": "37701257.807920921"
            },
            "orbiting_body": "Earth"
        },
        {
            "close_approach_date": "2017-05-03",
            "close_approach_date_full": "2017-May-03 03:26",
            "epoch_date_close_approach": 1493781960000,
            "relative_velocity": {
                "kilometers_per_second": "13.9836549177",
                "kilometers_per_hour": "50341.1577035897",
                "miles_per_hour": "31280.0376853222"
            },
            "miss_distance": {
                "astronomical": "0.0233837023",
                "lunar": "9.0962601947",
                "kilometers": "3498152.056794101",
                "miles": "2173650.8945605538"
            },
            "orbiting_body": "Earth"
        },
        {
            "close_approach_date": "2019-12-11",
            "close_approach_date_full": "2019-Dec-11 18:13",
            "epoch_date_close_approach": 1576087980000,
            "relative_velocity": {
                "kilometers_per_second": "25.4344147998",
                "kilometers_per_hour": "91563.8932793754",
                "miles_per_hour": "56894.2424657319"
            },
            "miss_distance": {
                "astronomical": "0.3876785595",
                "lunar": "150.8069596455",
                "kilometers": "57995886.745868265",
                "miles": "36036972.967241457"
            },
            "orbiting_body": "Earth"
        },
        {
            "close_approach_date": "2167-06-06",
            "close_approach_date_full": "2167-Jun-06 02:13",
            "epoch_date_close_approach": 6230225580000,
            "relative_velocity": {
                "kilometers_per_second": "28.1477179788",
                "kilometers_per_hour": "101331.784723644",
                "miles_per_hour": "62963.6303467554"
            },
            "miss_distance": {
                "astronomical": "0.4826991372",
                "lunar": "187.7699643708",
                "kilometers": "72210762.775957764",
                "miles": "44869687.3539305832"
            },
            "orbiting_body": "Earth"
        }
    ],
    "orbital_data": {
        "orbit_id": "7",
        "orbit_determination_date": "2017-05-29 06:18:19",
        "first_observation_date": "2017-05-07",
        "last_observation_date": "2017-05-28",
        "data_arc_in_days": 21,
        "observations_used": 85,
        "orbit_uncertainty": "7",
        "minimum_orbit_intersection": ".0228536",
        "jupiter_tisserand_invariant": "3.595",
        "epoch_osculation": "2459000.5",
        "eccentricity": ".593482761058634",
        "semi_major_axis": "2.003370931084663",
        "inclination": "2.493942947763943",
        "ascending_node_longitude": "190.8013176010062",
        "orbital_period": "1035.715507025223",
        "perihelion_distance": ".8144048194799308",
        "perihelion_argument": "330.591251616545",
        "aphelion_distance": "3.192337042689394",
        "perihelion_time": "2458870.106505542508",
        "mean_anomaly": "45.32292669781754",
        "mean_motion": ".3475857970245035",
        "equinox": "J2000",
        "orbit_class": {
            "orbit_class_type": "APO",
            "orbit_class_description": "Near-Earth asteroid orbits which cross the Earth’s orbit similar to that of 1862 Apollo",
            "orbit_class_range": "a (semi-major axis) > 1.0 AU; q (perihelion) < 1.017 AU"
        }
    },
    "is_sentry_object": false
}